[{"OBJECT_NAME":"ONEWEB-0504","OBJECT_ID":"2022-138K","EPOCH":"2026-03-09T17:34:43.675680","MEAN_MOTION":13.19725454,"ECCENTRICITY":0.00015499,"INCLINATION":87.923,"RA_OF_ASC_NODE":324.7789,"ARG_OF_PERICENTER":87.5252,"MEAN_ANOMALY":272.6058,"EPHEMERIS_TYPE":0,"CLASSIFICATION_TYPE":"U","NORAD_CAT_ID":54122,"ELEMENT_SET_NO":999,"REV_AT_EPOCH":16371,"BSTAR":-0.00016984146,"MEAN_MOTION_DOT":-5.5e-7,"MEAN_MOTION_DDOT":0},{"OBJECT_NAME":"DELTA 1 DEB","OBJECT_ID":"1973-086GT","EPOCH":"2026-03-09T04:20:17.348640","MEAN_MOTION":12.49522316,"ECCENTRICITY":0.0384811,"INCLINATION":103.8202,"RA_OF_ASC_NODE":159.2517,"ARG_OF_PERICENTER":284.6745,"MEAN_ANOMALY":130.9376,"EPHEMERIS_TYPE":0,"CLASSIFICATION_TYPE":"U","NORAD_CAT_ID":15789,"ELEMENT_SET_NO":999,"REV_AT_EPOCH":63452,"BSTAR":0.061696951,"MEAN_MOTION_DOT":0.00012161,"MEAN_MOTION_DDOT":0}]
